SCD 1                   
1 22490U 93009B   26193.09207877  .00000299  00000+0  31098-4 0  9993
2 22490  24.9702  53.8010 0042008  41.8001  96.2943 14.46127945764720
TECHSAT 1B (GO-32)      
1 25397U 98043D   26192.93037106  .00000020  00000+0  28845-4 0  9991
2 25397  99.0082 186.3145 0002096 119.6916 240.4471 14.24432954454850
SCD 2                   
1 25504U 98060A   26192.32589185  .00000293  00000+0  31159-4 0  9996
2 25504  24.9954 283.2998 0016868  19.0312  25.2104 14.45534120463823
DLR-TUBSAT              
1 25757U 99029B   26193.23165338  .00000021  00000+0  17067-4 0  9994
2 25757  98.6709 189.5612 0012964 274.5741  85.3973 14.52432897436880
TERRA                   
1 25994U 99068A   26193.14096647  .00000200  00000+0  49764-4 0  9994
2 25994  97.9443 241.6962 0003287 128.6540 242.9221 14.61122234413256
MAROC-TUBSAT            
1 27004U 01056D   26192.99239016 -.00000019  00000+0  30799-4 0  9996
2 27004  99.8095  10.3209 0020627  79.9870  73.3018 13.70263467229584
AQUA                    
1 27424U 02022A   26193.23618441  .00000395  00000+0  88336-4 0  9993
2 27424  98.4293 163.0223 0000846 107.6363 309.2398 14.62194503286934
SHIYAN-1 (SY-1)         
1 28220U 04012A   26193.16565102  .00008611  00000+0  26104-3 0  9999
2 28220  97.8694 272.8674 0004091 289.6193  70.4607 15.34402205214925
AURA                    
1 28376U 04026A   26193.11478000  .00000394  00000+0  89439-4 0  9992
2 28376  98.3429 149.7767 0001281  92.5584 267.5763 14.61365176169854
IRS-P5 (CARTOSAT-1)     
1 28649U 05017A   26193.04213005  .00000608  00000+0  66622-4 0  9997
2 28649  97.5306 214.9790 0001564  55.5912 304.5454 14.91112446147523
SINAH 1                 
1 28893U 05043D   26193.20288208  .00000150  00000+0  37829-4 0  9991
2 28893  98.2889 327.6763 0014173 192.9646 167.1194 14.64174367104189
RESURS-DK 1             
1 29228U 06021A   26192.62498360  .00001011  00000+0  62717-4 0  9999
2 29228  69.9312 276.2899 0006915 275.2250  84.8127 15.13311404106271
ARIRANG-2 (KOMPSAT-2)   
1 29268U 06031A   26193.17277477  .00000131  00000+0  33127-4 0  9994
2 29268  97.8315  16.4116 0014519   0.5430 128.6037 14.64674474 65132
LAPAN-TUBSAT            
1 29709U 07001A   26193.23655464  .00000818  00000+0  10016-3 0  9998
2 29709  98.1352 193.0262 0013615 102.2930 257.9809 14.85977407 54879
HAIYANG-1B              
1 31113U 07010A   26192.82658767  .00000040  00000+0  31073-4 0  9997
2 31113  98.3512 173.7181 0014547 125.1075 235.1475 14.31032783  4169
COSMO-SKYMED 1          
1 31598U 07023A   26193.19793471  .00001303  00000+0  11783-3 0  9999
2 31598  97.8843  25.2653 0001178 101.7788 258.3565 14.97210574 33537
TERRASAR-X              
1 31698U 07026A   26188.47915537  .00000240  00000+0  14624-4 0  9994
2 31698  97.4461 195.8972 0001878  86.9540 273.1909 15.19153986 56300
WORLDVIEW-1 (WV-1)      
1 32060U 07041A   26193.17020884  .00003480  00000+0  14432-3 0  9995
2 32060  97.3897 312.5622 0001252 222.5374 137.5767 15.24537821 46680
YAOGAN-3                
1 32289U 07055A   26193.22954612  .00001391  00000+0  14679-3 0  9996
2 32289  97.8150 222.8596 0001540  82.2545 277.8848 14.90873731  9608
COSMO-SKYMED 2          
1 32376U 07059A   26193.13993065  .00000200  00000+0  31642-4 0  9990
2 32376  97.8891  16.3767 0001437  93.2700 266.8678 14.82149079  5701
RADARSAT-2              
1 32382U 07061A   26193.15735596  .00000042  00000+0  33346-4 0  9992
2 32382  98.5784 199.7330 0001324  84.5441 275.5892 14.29982769969525
CARTOSAT-2A             
1 32783U 08021A   26193.07435128 -.00000069  00000+0 -25609-5 0  9998
2 32783  97.7627 240.9317 0012712  36.6013 323.6065 14.79272644982483
HUANJING 1A (HJ-1A)     
1 33320U 08041A   26193.18144610  .00001133  00000+0  14163-3 0  9995
2 33320  97.6692 178.0550 0020508  58.8311 301.4911 14.84045404962111
HUANJING 1B (HJ-1B)     
1 33321U 08041B   26193.22944634  .00000320  00000+0  44816-4 0  9991
2 33321  97.6529 181.1969 0037912 100.5056 260.0433 14.83361242962128
GEOEYE 1                
1 33331U 08042A   26193.15534990  .00000198  00000+0  46238-4 0  9998
2 33331  98.1328 266.7868 0004165 357.0158   3.1019 14.64647907953801
THEOS                   
1 33396U 08049A   26193.19200894 -.00000043  00000+0 -13195-6 0  9992
2 33396  98.5566 249.6623 0001132  88.7036 271.4271 14.20136655921511
COSMO-SKYMED 3          
1 33412U 08054A   26193.17495755  .00001331  00000+0  92842-4 0  9990
2 33412  97.8259  52.1597 0015577 176.0321 184.1032 15.07100303960700
YAOGAN-4                
1 33446U 08061A   26192.99302593  .00000533  00000+0  71770-4 0  9991
2 33446  97.9305 126.3209 0014124 356.2009   3.9095 14.83247769949341
GOSAT (IBUKI)           
1 33492U 09002A   26192.82030937 -.00000054  00000+0 -97420-6 0  9992
2 33492  98.0913 303.5970 0001240  92.1118 268.0228 14.67536213935079
DEIMOS-1                
1 35681U 09041A   26193.21431977  .00000437  00000+0  71661-4 0  9990
2 35681  97.7427 349.3610 0002749  96.9567 263.1955 14.75262895910573
DUBAISAT-1              
1 35682U 09041B   26192.84737047  .00000444  00000+0  73279-4 0  9991
2 35682  98.0079 325.8393 0010183 359.6236   0.4964 14.75163641908737
